[{"OBJECT_NAME":"STARLINK-34404","OBJECT_ID":"2025-130E","EPOCH":"2026-03-09T10:22:16.782816","MEAN_MOTION":15.30195294,"ECCENTRICITY":0.00014278,"INCLINATION":53.1602,"RA_OF_ASC_NODE":89.7369,"ARG_OF_PERICENTER":86.1678,"MEAN_ANOMALY":273.9486,"EPHEMERIS_TYPE":0,"CLASSIFICATION_TYPE":"U","NORAD_CAT_ID":64442,"ELEMENT_SET_NO":999,"REV_AT_EPOCH":4066,"BSTAR":0.00087959595,"MEAN_MOTION_DOT":0.00025779,"MEAN_MOTION_DDOT":0},{"OBJECT_NAME":"OBJECT BD","OBJECT_ID":"2025-313BD","EPOCH":"2026-03-09T15:06:44.992224","MEAN_MOTION":15.3000236,"ECCENTRICITY":0.00072867,"INCLINATION":97.397,"RA_OF_ASC_NODE":145.285,"ARG_OF_PERICENTER":333.4514,"MEAN_ANOMALY":26.6352,"EPHEMERIS_TYPE":0,"CLASSIFICATION_TYPE":"U","NORAD_CAT_ID":67299,"ELEMENT_SET_NO":999,"REV_AT_EPOCH":1083,"BSTAR":0.0027633805,"MEAN_MOTION_DOT":0.0008101,"MEAN_MOTION_DDOT":0}]
